{
    "links": {
        "self": "http://www.neowsapp.com/rest/v1/neo/3797744?api_key=iIulBulltgU6a56xZRHN4H3l9WmuAYTsLGpBGhQ2"
    },
    "id": "3797744",
    "neo_reference_id": "3797744",
    "name": "(2018 BG1)",
    "designation": "2018 BG1",
    "nasa_jpl_url": "http://ssd.jpl.nasa.gov/sbdb.cgi?sstr=3797744",
    "absolute_magnitude_h": 25.5,
    "estimated_diameter": {
        "kilometers": {
            "estimated_diameter_min": 0.0211132445,
            "estimated_diameter_max": 0.0472106499
        },
        "meters": {
            "estimated_diameter_min": 21.113244479,
            "estimated_diameter_max": 47.2106498806
        },
        "miles": {
            "estimated_diameter_min": 0.0131191578,
            "estimated_diameter_max": 0.0293353287
        },
        "feet": {
            "estimated_diameter_min": 69.2691770164,
            "estimated_diameter_max": 154.8905885541
        }
    },
    "is_potentially_hazardous_asteroid": false,
    "close_approach_data": [
        {
            "close_approach_date": "1947-01-22",
            "close_approach_date_full": "1947-Jan-22 21:41",
            "epoch_date_close_approach": -723953940000,
            "relative_velocity": {
                "kilometers_per_second": "7.1834292794",
                "kilometers_per_hour": "25860.3454059479",
                "miles_per_hour": "16068.6129551569"
            },
            "miss_distance": {
                "astronomical": "0.0279368774",
                "lunar": "10.8674453086",
                "kilometers": "4179297.353491138",
                "miles": "2596894.9558401844"
            },
            "orbiting_body": "Earth"
        },
        {
            "close_approach_date": "2018-01-24",
            "close_approach_date_full": "2018-Jan-24 16:01",
            "epoch_date_close_approach": 1516809660000,
            "relative_velocity": {
                "kilometers_per_second": "7.2708817109",
                "kilometers_per_hour": "26175.174159218",
                "miles_per_hour": "16264.2352990985"
            },
            "miss_distance": {
                "astronomical": "0.0279151099",
                "lunar": "10.8589777511",
                "kilometers": "4176040.981855913",
                "miles": "2594871.5403330794"
            },
            "orbiting_body": "Earth"
        }
    ],
    "orbital_data": {
        "orbit_id": "11",
        "orbit_determination_date": "2018-02-26 06:22:11",
        "first_observation_date": "2018-01-16",
        "last_observation_date": "2018-02-08",
        "data_arc_in_days": 23,
        "observations_used": 57,
        "orbit_uncertainty": "7",
        "minimum_orbit_intersection": ".0252551",
        "jupiter_tisserand_invariant": "3.789",
        "epoch_osculation": "2459000.5",
        "eccentricity": ".473771645434398",
        "semi_major_axis": "1.904850755728076",
        "inclination": "7.103317442673267",
        "ascending_node_longitude": "127.6962140406716",
        "orbital_period": "960.2622556571138",
        "perihelion_distance": "1.002386478879829",
        "perihelion_argument": "345.1908552229339",
        "aphelion_distance": "2.807315032576323",
        "perihelion_time": "2459094.437654236994",
        "mean_anomaly": "324.7830003459041",
        "mean_motion": ".3748975843621487",
        "equinox": "J2000",
        "orbit_class": {
            "orbit_class_type": "APO",
            "orbit_class_description": "Near-Earth asteroid orbits which cross the Earth’s orbit similar to that of 1862 Apollo",
            "orbit_class_range": "a (semi-major axis) > 1.0 AU; q (perihelion) < 1.017 AU"
        }
    },
    "is_sentry_object": false
}